OBJECT_NAME,OBJECT_ID,EPOCH,MEAN_MOTION,ECCENTRICITY,INCLINATION,RA_OF_ASC_NODE,ARG_OF_PERICENTER,MEAN_ANOMALY,EPHEMERIS_TYPE,CLASSIFICATION_TYPE,NORAD_CAT_ID,ELEMENT_SET_NO,REV_AT_EPOCH,BSTAR,MEAN_MOTION_DOT,MEAN_MOTION_DDOT
SCD 1,1993-009B,2026-07-22T13:39:38.281248,14.46130748,.00419457,24.9709,349.1117,152.2192,281.3059,0,U,22490,999,76624,.4709552E-4,.359E-5,0
TECHSAT 1B (GO-32),1998-043D,2026-07-22T11:12:09.929376,14.24434333,.00023271,99.0091,197.1189,103.4335,256.7103,0,U,25397,999,45635,.35821596E-4,.36E-6,0
SCD 2,1998-060A,2026-07-22T08:49:51.098592,14.45536331,.00169282,24.9935,215.2005,134.2465,248.7662,0,U,25504,999,46542,.36489391E-4,.313E-5,0
DLR-TUBSAT,1999-029B,2026-07-22T10:15:25.522272,14.52434373,.00131278,98.6717,200.0946,240.8501,119.1380,0,U,25757,999,43836,.26629592E-4,.6E-6,0
TERRA,1999-068A,2026-07-22T13:54:21.924288,14.61127651,.00036419,97.9436,251.7188,108.3723,57.1543,0,U,25994,999,41477,.61837359E-4,.26E-5,0
MAROC-TUBSAT,2001-056D,2026-07-22T11:32:16.356768,13.70263745,.00204779,99.8104,21.0089,54.0994,330.8625,0,U,27004,999,23102,.31035012E-4,-.19E-6,0
AQUA,2002-022A,2026-07-22T13:41:55.958784,14.62135962,.00013479,98.4302,173.5661,102.3374,320.9031,0,U,27424,999,28844,.11870981E-3,.547E-5,0
SHIYAN-1 (SY-1),2004-012A,2026-07-22T04:59:33.752256,15.34574452,.00043964,97.8672,283.5717,242.7829,117.2965,0,U,28220,999,21646,.42119635E-3,.14036E-3,0
AURA,2004-026A,2026-07-22T12:31:52.753440,14.61375199,.00014256,98.3435,160.2730,93.9422,266.1941,0,U,28376,999,17137,.12039518E-3,.547E-5,0
IRS-P5 (CARTOSAT-1),2005-017A,2026-07-22T12:15:12.302784,14.91130144,.00009507,97.5307,224.9733,58.4804,301.6508,0,U,28649,999,14908,.92761994E-4,.868E-5,0
SINAH 1,2005-043D,2026-07-22T14:10:04.785024,14.64178963,.00149075,98.2902,338.1291,160.7863,199.3904,0,U,28893,999,10570,.56366007E-4,.247E-5,0
RESURS-DK 1,2006-021A,2026-07-22T07:59:27.691296,15.13337369,.00075242,69.9299,248.5646,263.4935,96.5374,0,U,29228,999,10789,.86164191E-4,.1431E-4,0
ARIRANG-2 (KOMPSAT-2),2006-031A,2026-07-22T14:49:37.533792,14.64677317,.00136053,97.8325,26.3522,326.5674,124.3197,0,U,29268,999,6666,-.5309534E-5,-.73E-6,0
LAPAN-TUBSAT,2007-001A,2026-07-22T14:33:13.811904,14.85979262,.00135879,98.1363,203.6321,72.3643,287.9054,0,U,29709,999,5641,.9907676E-5,.29E-6,0
HAIYANG-1B,2007-010A,2026-07-21T16:26:48.414048,14.31034509,.00148267,98.3520,183.1967,98.2130,262.0736,0,U,31113,999,557,.42645743E-4,.71E-6,0
COSMO-SKYMED 1,2007-023A,2026-07-22T14:58:03.065376,14.97250045,.00018263,97.8857,35.7804,93.6001,266.5429,0,U,31598,999,3509,.21868004E-3,.2472E-4,0
TERRASAR-X,2007-026A,2026-07-22T11:55:52.401792,15.19149840,.00017968,97.4457,210.7016,80.1769,279.9668,0,U,31698,999,5858,.15522946E-4,.259E-5,0
WORLDVIEW-1 (WV-1),2007-041A,2026-07-22T12:58:12.438336,15.24616193,.00022411,97.3902,322.7914,178.1760,181.9486,0,U,32060,999,4826,.25884367E-3,.6315E-4,0
YAOGAN-3,2007-055A,2026-07-22T15:10:44.076576,14.90899538,.00014669,97.8145,233.1602,85.9573,274.1812,0,U,32289,999,1115,.19244267E-3,.1842E-4,0
COSMO-SKYMED 2,2007-059A,2026-07-22T14:29:53.095200,14.82154756,.00014802,97.8898,26.6903,93.9192,266.2191,0,U,32376,999,725,.44477032E-4,.302E-5,0
RADARSAT-2,2007-061A,2026-07-22T15:40:17.408064,14.29980876,.0001277,98.5797,210.0806,90.6992,269.4337,0,U,32382,999,97102,.16718E-4,-.1E-7,0
CARTOSAT-2A,2008-021A,2026-07-22T13:24:42.310656,14.79282770,.00118541,97.7613,251.0569,4.4495,355.6820,0,U,32783,999,98403,.11222754E-3,.785E-5,0
HUANJING 1A (HJ-1A),2008-041A,2026-07-22T15:10:24.570912,14.84058689,.00198204,97.6710,188.1052,26.6315,333.5913,0,U,33320,999,96366,.78951971E-4,.609E-5,0
HUANJING 1B (HJ-1B),2008-041B,2026-07-22T14:49:21.180864,14.83374904,.00379456,97.6546,191.1551,68.0135,292.5105,0,U,33321,999,96366,.83686135E-4,.643E-5,0
GEOEYE 1,2008-042A,2026-07-22T12:56:48.106752,14.64653653,.00034541,98.1321,277.0490,319.1414,40.9529,0,U,33331,999,95532,.65470999E-4,.3E-5,0
THEOS,2008-049A,2026-07-22T14:51:59.685984,14.20138552,.00011325,98.5551,259.7491,92.8295,267.3012,0,U,33396,999,92299,.14468747E-3,.266E-5,0
COSMO-SKYMED 3,2008-054A,2026-07-22T14:22:06.223296,15.07150646,.00167886,97.8254,62.7543,141.3865,218.8566,0,U,33412,999,96227,.25446257E-3,.3771E-4,0
YAOGAN-4,2008-061A,2026-07-22T07:32:50.140608,14.83260998,.00132819,97.9302,136.5669,321.4364,38.5899,0,U,33446,999,95087,.99196094E-4,.758E-5,0
GOSAT (IBUKI),2009-002A,2026-07-22T14:14:02.519808,14.67540019,.00011012,98.0915,314.2355,92.8914,267.2417,0,U,33492,999,93665,.87748187E-4,.449E-5,0
DEIMOS-1,2009-041A,2026-07-22T14:11:58.923744,14.75267377,.00028052,97.7448,359.2927,82.8130,277.3399,0,U,35681,999,91210,.28214592E-4,.143E-5,0
